[{"OBJECT_NAME":"FLOCK 4G-24","OBJECT_ID":"2025-009AE","EPOCH":"2026-03-09T17:24:07.838208","MEAN_MOTION":15.27784978,"ECCENTRICITY":0.0001802,"INCLINATION":97.4061,"RA_OF_ASC_NODE":151.514,"ARG_OF_PERICENTER":280.2808,"MEAN_ANOMALY":79.8228,"EPHEMERIS_TYPE":0,"CLASSIFICATION_TYPE":"U","NORAD_CAT_ID":62637,"ELEMENT_SET_NO":999,"REV_AT_EPOCH":6373,"BSTAR":0.00038996067,"MEAN_MOTION_DOT":0.00010513,"MEAN_MOTION_DDOT":0},{"OBJECT_NAME":"STARLINK-36125","OBJECT_ID":"2025-294G","EPOCH":"2026-03-09T21:52:15.302208","MEAN_MOTION":15.27591083,"ECCENTRICITY":6.93e-5,"INCLINATION":43.0055,"RA_OF_ASC_NODE":36.7751,"ARG_OF_PERICENTER":251.7922,"MEAN_ANOMALY":108.2855,"EPHEMERIS_TYPE":0,"CLASSIFICATION_TYPE":"U","NORAD_CAT_ID":67036,"ELEMENT_SET_NO":999,"REV_AT_EPOCH":1483,"BSTAR":0.00092666724,"MEAN_MOTION_DOT":0.00025334,"MEAN_MOTION_DDOT":0}]
